{
  "type": "FeatureCollection",
  "features": [
    {
      "type": "Feature",
      "properties": {
        "norad_id": 28054,
        "name": "DMSP 5D-3 F16 (USA 172)",
        "group": "weather",
        "lat": -72.57231880729441,
        "lon": 28.696190103518557,
        "alt_km": 848.6694272831855,
        "timestamp": "2025-12-06T22:38:42.377556+00:00",
        "meta_object_name": "DMSP 5D-3 F16 (USA 172)",
        "meta_object_id": "2003-048A",
        "meta_epoch": "2025-12-06T15:01:14.863872",
        "meta_mean_motion": 14.14420953,
        "meta_eccentricity": 0.00067425,
        "meta_inclination": 99.0049,
        "meta_ra_of_asc_node": 358.0347,
        "meta_arg_of_pericenter": 339.694,
        "meta_mean_anomaly": 128.6826,
        "meta_ephemeris_type": 0,
        "meta_classification_type": "U",
        "meta_norad_cat_id": 28054,
        "meta_element_set_no": 999,
        "meta_rev_at_epoch": 14226,
        "meta_bstar": 0.00016970468,
        "meta_mean_motion_dot": 2.79e-06,
        "meta_mean_motion_ddot": 0,
        "tle_line1": "1 28054U 03048A   25340.62586648  .00000279  00000+0  16970-3 0  9996",
        "tle_line2": "2 28054  99.0049 358.0347 0006742 339.6940 128.6826 14.14420953142266"
      },
      "geometry": {
        "type": "Point",
        "coordinates": [
          28.696190103518557,
          -72.57231880729441
        ]
      }
    },
    {
      "type": "Feature",
      "properties": {
        "norad_id": 28912,
        "name": "METEOSAT-9 (MSG-2)",
        "group": "weather",
        "lat": 6.342479614333535,
        "lon": 100.88216180704812,
        "alt_km": 35798.36638844058,
        "timestamp": "2025-12-06T22:38:42.377605+00:00",
        "meta_object_name": "METEOSAT-9 (MSG-2)",
        "meta_object_id": "2005-049B",
        "meta_epoch": "2025-12-05T20:45:39.436128",
        "meta_mean_motion": 1.00272635,
        "meta_eccentricity": 0.00040045,
        "meta_inclination": 8.9234,
        "meta_ra_of_asc_node": 56.0387,
        "meta_arg_of_pericenter": 187.5839,
        "meta_mean_anomaly": 188.3106,
        "meta_ephemeris_type": 0,
        "meta_classification_type": "U",
        "meta_norad_cat_id": 28912,
        "meta_element_set_no": 999,
        "meta_rev_at_epoch": 506,
        "meta_bstar": 0,
        "meta_mean_motion_dot": 1.28e-06,
        "meta_mean_motion_ddot": 0,
        "tle_line1": "1 28912U 05049B   25339.86503977  .00000128  00000+0  00000+0 0  9996",
        "tle_line2": "2 28912   8.9234  56.0387 0004004 187.5839 188.3106  1.00272635  5062"
      },
      "geometry": {
        "type": "Point",
        "coordinates": [
          100.88216180704812,
          6.342479614333535
        ]
      }
    },
    {
      "type": "Feature",
      "properties": {
        "norad_id": 29522,
        "name": "DMSP 5D-3 F17 (USA 191)",
        "group": "weather",
        "lat": -34.85148482570405,
        "lon": 160.30430940905407,
        "alt_km": 842.8803442551816,
        "timestamp": "2025-12-06T22:38:42.377623+00:00",
        "meta_object_name": "DMSP 5D-3 F17 (USA 191)",
        "meta_object_id": "2006-050A",
        "meta_epoch": "2025-12-06T14:50:30.103008",
        "meta_mean_motion": 14.1491567,
        "meta_eccentricity": 0.00092291,
        "meta_inclination": 98.7393,
        "meta_ra_of_asc_node": 346.1349,
        "meta_arg_of_pericenter": 243.778,
        "meta_mean_anomaly": 116.2445,
        "meta_ephemeris_type": 0,
        "meta_classification_type": "U",
        "meta_norad_cat_id": 29522,
        "meta_element_set_no": 999,
        "meta_rev_at_epoch": 98518,
        "meta_bstar": 0.00019143856,
        "meta_mean_motion_dot": 3.27e-06,
        "meta_mean_motion_ddot": 0,
        "tle_line1": "1 29522U 06050A   25340.61840397  .00000327  00000+0  19144-3 0  9996",
        "tle_line2": "2 29522  98.7393 346.1349 0009229 243.7780 116.2445 14.14915670985186"
      },
      "geometry": {
        "type": "Point",
        "coordinates": [
          160.30430940905407,
          -34.85148482570405
        ]
      }
    },
    {
      "type": "Feature",
      "properties": {
        "norad_id": 32958,
        "name": "FENGYUN 3A",
        "group": "weather",
        "lat": -13.447316000044193,
        "lon": 98.50196588698049,
        "alt_km": 835.6718603480504,
        "timestamp": "2025-12-06T22:38:42.377636+00:00",
        "meta_object_name": "FENGYUN 3A",
        "meta_object_id": "2008-026A",
        "meta_epoch": "2025-12-06T13:16:39.068544",
        "meta_mean_motion": 14.195116,
        "meta_eccentricity": 0.00081907,
        "meta_inclination": 98.6688,
        "meta_ra_of_asc_node": 280.2105,
        "meta_arg_of_pericenter": 329.7021,
        "meta_mean_anomaly": 30.3681,
        "meta_ephemeris_type": 0,
        "meta_classification_type": "U",
        "meta_norad_cat_id": 32958,
        "meta_element_set_no": 999,
        "meta_rev_at_epoch": 90807,
        "meta_bstar": 0.00013749958,
        "meta_mean_motion_dot": 2.47e-06,
        "meta_mean_motion_ddot": 0,
        "tle_line1": "1 32958U 08026A   25340.55322996  .00000247  00000+0  13750-3 0  9999",
        "tle_line2": "2 32958  98.6688 280.2105 0008190 329.7021  30.3681 14.19511600908077"
      },
      "geometry": {
        "type": "Point",
        "coordinates": [
          98.50196588698049,
          -13.447316000044193
        ]
      }
    },
    {
      "type": "Feature",
      "properties": {
        "norad_id": 35491,
        "name": "GOES 14",
        "group": "weather",
        "lat": -0.8035904293060538,
        "lon": -52.63397955777147,
        "alt_km": 35779.40969076912,
        "timestamp": "2025-12-06T22:38:42.377651+00:00",
        "meta_object_name": "GOES 14",
        "meta_object_id": "2009-033A",
        "meta_epoch": "2025-12-06T11:26:17.377728",
        "meta_mean_motion": 1.00272854,
        "meta_eccentricity": 0.00041746,
        "meta_inclination": 1.1822,
        "meta_ra_of_asc_node": 85.48,
        "meta_arg_of_pericenter": 153.1779,
        "meta_mean_anomaly": 260.1109,
        "meta_ephemeris_type": 0,
        "meta_classification_type": "U",
        "meta_norad_cat_id": 35491,
        "meta_element_set_no": 999,
        "meta_rev_at_epoch": 466,
        "meta_bstar": 0,
        "meta_mean_motion_dot": -6.1e-07,
        "meta_mean_motion_ddot": 0,
        "tle_line1": "1 35491U 09033A   25340.47659002 -.00000061  00000+0  00000+0 0  9990",
        "tle_line2": "2 35491   1.1822  85.4800 0004174 153.1779 260.1109  1.00272854  4666"
      },
      "geometry": {
        "type": "Point",
        "coordinates": [
          -52.63397955777147,
          -0.8035904293060538
        ]
      }
    },
    {
      "type": "Feature",
      "properties": {
        "norad_id": 35951,
        "name": "DMSP 5D-3 F18 (USA 210)",
        "group": "weather",
        "lat": 80.15911974399083,
        "lon": -106.98778397755707,
        "alt_km": 827.0206715057429,
        "timestamp": "2025-12-06T22:38:42.377664+00:00",
        "meta_object_name": "DMSP 5D-3 F18 (USA 210)",
        "meta_object_id": "2009-057A",
        "meta_epoch": "2025-12-06T13:45:19.077408",
        "meta_mean_motion": 14.14763551,
        "meta_eccentricity": 0.00121228,
        "meta_inclination": 98.8827,
        "meta_ra_of_asc_node": 317.005,
        "meta_arg_of_pericenter": 78.7782,
        "meta_mean_anomaly": 281.4753,
        "meta_ephemeris_type": 0,
        "meta_classification_type": "U",
        "meta_norad_cat_id": 35951,
        "meta_element_set_no": 999,
        "meta_rev_at_epoch": 83235,
        "meta_bstar": 0.00024416455,
        "meta_mean_motion_dot": 4.26e-06,
        "meta_mean_motion_ddot": 0,
        "tle_line1": "1 35951U 09057A   25340.57313747  .00000426  00000+0  24416-3 0  9996",
        "tle_line2": "2 35951  98.8827 317.0050 0012122  78.7782 281.4753 14.14763551832358"
      },
      "geometry": {
        "type": "Point",
        "coordinates": [
          -106.98778397755707,
          80.15911974399083
        ]
      }
    },
    {
      "type": "Feature",
      "properties": {
        "norad_id": 36411,
        "name": "EWS-G2 (GOES 15)",
        "group": "weather",
        "lat": 0.4286889710522626,
        "lon": 117.05685433277085,
        "alt_km": 35806.893332186504,
        "timestamp": "2025-12-06T22:38:42.377677+00:00",
        "meta_object_name": "EWS-G2 (GOES 15)",
        "meta_object_id": "2010-008A",
        "meta_epoch": "2025-12-06T12:14:42.741024",
        "meta_mean_motion": 1.00268312,
        "meta_eccentricity": 0.00060223,
        "meta_inclination": 0.7979,
        "meta_ra_of_asc_node": 86.032,
        "meta_arg_of_pericenter": 172.3664,
        "meta_mean_anomaly": 62.2929,
        "meta_ephemeris_type": 0,
        "meta_classification_type": "U",
        "meta_norad_cat_id": 36411,
        "meta_element_set_no": 999,
        "meta_rev_at_epoch": 5770,
        "meta_bstar": 0,
        "meta_mean_motion_dot": 4.5e-07,
        "meta_mean_motion_ddot": 0,
        "tle_line1": "1 36411U 10008A   25340.51021691  .00000045  00000+0  00000+0 0  9990",
        "tle_line2": "2 36411   0.7979  86.0320 0006022 172.3664  62.2929  1.00268312 57709"
      },
      "geometry": {
        "type": "Point",
        "coordinates": [
          117.05685433277085,
          0.4286889710522626
        ]
      }
    }
  ]
}